H1 CPF  1  HTS 2017  4  1 12  5911 starlette        NONE
H2  7501001 1134     7646 2017 04 01  0  0  0 2017 04 06  0  0  0   180 1 1  0 0 0
H5  0.0750 
H9 
10 0 57848  69480.00000  0    4727716.110   -2176375.942    5047241.802
10 0 57848  69660.00000  0    4751982.684    -935119.966    5364432.083
10 0 57848  69840.00000  0    4648334.036     338783.263    5498569.265
10 0 57848  70020.00000  0    4419394.777    1605434.448    5443629.862
10 0 57848  70200.00000  0    4071317.816    2824480.958    5200340.893
10 0 57848  70380.00000  0    3613662.915    3956636.918    4776315.524
10 0 57848  70560.00000  0    3059134.894    4965222.744    4185867.658
10 0 57848  70740.00000  0    2423184.420    5817631.358    3449498.312
10 0 57848  70920.00000  0    1723491.036    6486626.048    2593072.649
10 0 57848  71100.00000  0     979353.115    6951387.448    1646730.439
10 0 57848  71280.00000  0     211020.715    7198236.841     643600.574
10 0 57848  71460.00000  0    -560982.435    7220998.836    -381588.160
10 0 57848  71640.00000  0   -1316504.380    7021009.246   -1393907.496
10 0 57848  71820.00000  0   -2036348.347    6606793.903   -2359562.985
10 0 57848  72000.00000  0   -2702766.055    5993464.316   -3247086.198
10 0 57848  72180.00000  0   -3299844.041    5201904.879   -4028332.726
10 0 57848  72360.00000  0   -3813783.545    4257829.835   -4679267.303
10 0 57848  72540.00000  0   -4233084.171    3190774.321   -5180533.610
10 0 57848  72720.00000  0   -4548647.491    2033078.155   -5517824.563
10 0 57848  72900.00000  0   -4753821.277     818898.183   -5682079.908
10 0 57848  73080.00000  0   -4844401.558    -416727.184   -5669536.428
10 0 57848  73260.00000  0   -4818609.377   -1638750.559   -5481659.475
10 0 57848  73440.00000  0   -4677055.650   -2812925.490   -5124976.517
10 0 57848  73620.00000  0   -4422702.962   -3906560.510   -4610829.580
10 0 57848  73800.00000  0   -4060825.115   -4889227.576   -3955054.548
10 0 57848  73980.00000  0   -3598962.517   -5733431.660   -3177589.223
10 0 57848  74160.00000  0   -3046867.974   -6415246.651   -2302007.634
10 0 57848  74340.00000  0   -2416433.588   -6914917.745   -1354974.556
10 0 57848  74520.00000  0   -1721586.237   -7217423.887    -365611.439
10 0 57848  74700.00000  0    -978137.355   -7312983.388     635232.356
10 0 57848  74880.00000  0    -203574.983   -7197480.737    1615802.291
10 0 57848  75060.00000  0     583213.487   -6872790.028    2544351.029
10 0 57848  75240.00000  0    1362299.488   -6346961.531    3390130.305
10 0 57848  75420.00000  0    2113156.655   -5634232.511    4124434.964
10 0 57848  75600.00000  0    2815184.401   -4754833.450    4721659.132
10 0 57848  75780.00000  0    3448299.596   -3734569.478    5160322.204
10 0 57848  75960.00000  0    3993582.114   -2604162.598    5424014.083
10 0 57848  76140.00000  0    4433950.939   -1398352.295    5502200.551
10 0 57848  76320.00000  0    4754837.026    -154766.445    5390826.935
10 0 57848  76500.00000  0    4944808.236    1087398.349    5092660.166
10 0 57848  76680.00000  0    4996103.794    2288822.838    4617330.749
10 0 57848  76860.00000  0    4905042.913    3411567.141    3981052.882
10 0 57848  77040.00000  0    4672270.604    4420542.694    3206016.304
10 0 57848  77220.00000  0    4302815.080    5284860.492    2319478.984
10 0 57848  77400.00000  0    3805946.359    5978971.044    1352613.210
10 0 57848  77580.00000  0    3194848.574    6483521.600     339179.926
10 0 57848  77760.00000  0    2486131.019    6785888.775    -685878.108
10 0 57848  77940.00000  0    1699216.495    6880371.820   -1687827.775
10 0 57848  78120.00000  0     855657.270    6768069.028   -2633440.831
10 0 57848  78300.00000  0     -21575.976    6456481.758   -3492131.857
10 0 57848  78480.00000  0    -908793.766    5958904.102   -4236898.055
10 0 57848  78660.00000  0   -1782244.778    5293664.207   -4845041.691
10 0 57848  78840.00000  0   -2618710.500    4483282.104   -5298679.153
10 0 57848  79020.00000  0   -3396030.653    3553598.487   -5585056.425
10 0 57848  79200.00000  0   -4093562.093    2532913.975   -5696698.372
10 0 57848  79380.00000  0   -4692579.934    1451163.828   -5631420.405
10 0 57848  79560.00000  0   -5176632.224     339140.074   -5392227.489
10 0 57848  79740.00000  0   -5531858.540    -772235.178   -4987121.364
10 0 57848  79920.00000  0   -5747282.647   -1852590.201   -4428830.375
10 0 57848  80100.00000  0   -5815084.377   -2872745.754   -3734466.443
10 0 57848  80280.00000  0   -5730850.439   -3805326.290   -2925110.073
10 0 57848  80460.00000  0   -5493798.886   -4625346.298   -2025320.212
10 0 57848  80640.00000  0   -5106967.673   -5310774.656   -1062562.597
10 0 57848  80820.00000  0   -4577352.560   -5843074.855     -66549.153
10 0 57848  81000.00000  0   -3915974.425   -6207713.002     931517.814
10 0 57848  81180.00000  0   -3137851.889   -6394616.461    1899797.067
10 0 57848  81360.00000  0   -2261856.846   -6398560.244    2806745.748
10 0 57848  81540.00000  0   -1310433.962   -6219457.301    3622124.992
10 0 57848  81720.00000  0    -309166.167   -5862526.870    4318049.446
10 0 57848  81900.00000  0     713828.259   -5338308.995    4870042.271
10 0 57848  82080.00000  0    1728662.191   -4662497.111    5258044.127
10 0 57848  82260.00000  0    2704594.334   -3855572.691    5467320.860
10 0 57848  82440.00000  0    3611063.885   -2942236.690    5489210.228
10 0 57848  82620.00000  0    4418807.490   -1950644.529    5321653.106
10 0 57848  82800.00000  0    5101007.412    -911457.390    4969456.974
10 0 57848  82980.00000  0    5634399.104     143255.748    4444246.381
10 0 57848  83160.00000  0    6000263.334    1181203.490    3764083.246
10 0 57848  83340.00000  0    6185240.875    2171080.955    2952767.947
10 0 57848  83520.00000  0    6181907.475    3083730.444    2038852.242
10 0 57848  83700.00000  0    5989070.677    3893181.651    1054426.886
10 0 57848  83880.00000  0    5611771.911    4577506.330      33761.708
10 0 57848  84060.00000  0    5061005.255    5119442.697    -988107.313
10 0 57848  84240.00000  0    4353187.171    5506767.776   -1976752.431
10 0 57848  84420.00000  0    3509436.990    5732417.432   -2899609.349
10 0 57848  84600.00000  0    2554732.018    5794385.367   -3727060.105
10 0 57848  84780.00000  0    1516994.842    5695437.039   -4433309.634
10 0 57848  84960.00000  0     426168.193    5442686.650   -4997044.831
10 0 57848  85140.00000  0    -686681.464    5047085.193   -5401884.677
99
